STARLINK-1635           
1 46172U 20057BH  20253.25001157  .00024338  00000-0  23557-3 0  9992
2 46172  53.0001 333.6195 0001216  62.7862 250.0635 15.66296746  1826
STARLINK-1640           
1 46173U 20057BJ  20253.50001157 -.00003709  00000-0 -34699-4 0  9992
2 46173  53.0020 332.7242 0001501  64.1551  58.8581 15.62740782  4129
STARLINK-1641           
1 46174U 20057BK  20253.50001157 -.01063683  00000-0 -14415-1 0  9992
2 46174  52.9999 332.7719 0001611  43.0030  69.1367 15.59597763  4124
FALCON 9 DEB            
1 46175U 20057BL  20253.44149751  .00499880  11608-4  34406-3 0  9992
2 46175  52.9873 328.7953 0065216 123.2989 237.4313 16.10922373  3516
FALCON 9 DEB            
1 46176U 20057BM  20252.69376836  .00619650  11629-4  39244-3 0  9992
2 46176  52.9899 332.6936 0067346 118.7771 242.0049 16.11659453  3395
FALCON 9 DEB            
1 46177U 20057BN  20253.45606368  .01186455  11838-4  43495-3 0  9992
2 46177  52.9899 328.1531 0050075 122.5576 238.0312 16.20461477  3524
FALCON 9 DEB            
1 46178U 20057BP  20253.43475368  .01839457  11972-4  46562-3 0  9999
2 46178  52.9906 328.0102 0038250 118.8901 241.5985 16.25900021  3521
SKYSAT-C17              
1 46179U 20057BQ  20253.45243997  .00006568  00000-0  56780-4 0  9991
2 46179  53.0017 331.8988 0011807  30.1588 330.0106 15.70628662  3062
SKYSAT-C18              
1 46180U 20057BR  20252.60170112  .00029921  11404-4  98933-4 0  9995
2 46180  52.9995 335.0923 0066045 117.4856 243.2902 15.88100276  2976
2020-058A               
1 46232U 20058A   20253.22591189 -.00000074  00000-0  00000+0 0  9992
2 46232  97.5023 300.7399 0016740 202.9560 197.4716 15.23941956  2606
2020-058B               
1 46233U 20058B   20253.23168112  .00001121  00000-0  49108-4 0  9990
2 46233  97.5022 300.7506 0015554 205.6279 239.1018 15.24056233  2598
2020-058C               
1 46234U 20058C   20253.56349589  .00002785  00000-0  11738-3 0  9990
2 46234  97.5019 301.0833 0015582 204.1880 260.1588 15.24083685  2648
